OBJECT_NAME,OBJECT_ID,EPOCH,MEAN_MOTION,ECCENTRICITY,INCLINATION,RA_OF_ASC_NODE,ARG_OF_PERICENTER,MEAN_ANOMALY,EPHEMERIS_TYPE,CLASSIFICATION_TYPE,NORAD_CAT_ID,ELEMENT_SET_NO,REV_AT_EPOCH,BSTAR,MEAN_MOTION_DOT,MEAN_MOTION_DDOT
SAUDISAT 1C (SO-50),2002-058C,2026-07-11T18:25:27.956352,14.83094566,.00746229,64.5517,52.9312,257.9067,101.3671,0,U,27607,999,26810,.64587119E-4,.395E-5,0
SAUDISAT 2,2004-025F,2026-07-11T13:13:21.128736,14.56697083,.00238882,98.5518,193.1634,219.6342,140.3109,0,U,28371,999,16929,.37597086E-4,.119E-5,0
SAUDISAT 3,2007-012B,2026-07-11T17:44:42.257472,14.71439176,.00153707,98.1466,143.1577,145.0908,215.1309,0,U,31118,999,3135,.26182383E-4,.111E-5,0
PISAT,2016-059B,2026-07-11T12:41:51.713664,14.69025621,.00302902,97.8188,191.9369,126.0385,234.3635,0,U,41784,999,52331,.93078043E-4,.502E-5,0
FLYING LAPTOP,2017-042G,2026-07-11T18:44:29.758272,15.01299879,.00198542,97.4788,347.3863,43.2580,317.0200,0,U,42831,999,49014,.19874742E-3,.2509E-4,0
SALSAT,2020-068K,2026-07-11T12:58:29.571456,15.30139435,.00088233,97.8855,197.0941,206.5203,153.5586,0,U,46495,999,31908,.15528118E-3,.4447E-4,0
